IRIDIUM 119             
1 42959U 17061E   25283.56470811 -.00000304  00000+0 -11580-3 0  9992
2 42959  86.3954 129.6293 0002317  87.6640 272.4821 14.34217305419035
IRIDIUM 107             
1 42960U 17061F   25283.51396691  .00000109  00000+0  31785-4 0  9993
2 42960  86.3955 129.6706 0002499  80.5468 279.6011 14.34218428419035
IRIDIUM 132             
1 42961U 17061G   25283.03192860  .00000199  00000+0  64046-4 0  9998
2 42961  86.3956 129.8533 0002181  84.0467 276.0978 14.34219078418969
IRIDIUM 136             
1 42962U 17061H   25283.55202213  .00000256  00000+0  84260-4 0  9994
2 42962  86.3954 129.6412 0002301  86.7932 273.3527 14.34218558419055
IRIDIUM 139             
1 42963U 17061J   25283.55836689  .00000263  00000+0  86953-4 0  9994
2 42963  86.3956 129.6966 0002237  80.8039 279.3409 14.34218933419066
IRIDIUM 125             
1 42964U 17061K   25283.54567900  .00000151  00000+0  46910-4 0  9996
2 42964  86.3958 129.7584 0002684  85.4490 274.7013 14.34217902419070
IRIDIUM 135             
1 43070U 17083A   25283.45003619  .00000017  00000+0 -10768-5 0  9996
2 43070  86.3938  66.3989 0001883  92.8034 267.3377 14.34217173408358
IRIDIUM 138             
1 43071U 17083B   25283.40561750  .00000375  00000+0  12698-3 0  9995
2 43071  86.3953  66.0739 0002505 100.0767 260.0712 14.34213241408336
